{
  "norad_id": 65652,
  "name": "STARLINK-35328",
  "history": [
    {
      "epoch": "2026-03-28T20:45:38.654208Z",
      "apogee_km": 550.2393842102238,
      "perigee_km": 548.7406613801122,
      "latitude_deg": 4.470440023789395e-05,
      "longitude_deg": -4.778314231953815,
      "height_km": 552.5856973116315,
      "semi_major_axis_km": 6927.627022795167,
      "eccentricity": 0.00010817,
      "inclination_deg": 97.6043,
      "raan_deg": 132.9121,
      "arg_perigee_deg": 92.4653,
      "mean_anomaly_deg": 267.6698,
      "mean_motion_rev_day": 15.05656889
    },
    {
      "epoch": "2026-03-29T03:08:26.642688Z",
      "apogee_km": 550.2729800111756,
      "perigee_km": 548.7239607200027,
      "latitude_deg": -2.064457065790499e-05,
      "longitude_deg": -100.47817469952332,
      "height_km": 552.6384929370539,
      "semi_major_axis_km": 6927.635470365589,
      "eccentricity": 0.0001118,
      "inclination_deg": 97.6046,
      "raan_deg": 133.1742,
      "arg_perigee_deg": 95.6779,
      "mean_anomaly_deg": 264.4575,
      "mean_motion_rev_day": 15.05654135
    },
    {
      "epoch": "2026-03-30T01:28:14.598048Z",
      "apogee_km": 550.3434806617142,
      "perigee_km": 548.6101916799043,
      "latitude_deg": -5.687091209437066e-05,
      "longitude_deg": -75.42814338231554,
      "height_km": 552.6132399521595,
      "semi_major_axis_km": 6927.613836170809,
      "eccentricity": 0.0001251,
      "inclination_deg": 97.6037,
      "raan_deg": 134.0911,
      "arg_perigee_deg": 94.8444,
      "mean_anomaly_deg": 265.2925,
      "mean_motion_rev_day": 15.05661188
    },
    {
      "epoch": "2026-03-30T01:28:14.598912Z",
      "apogee_km": 550.3432728332991,
      "perigee_km": 548.6103995083195,
      "latitude_deg": -5.341838702224857e-05,
      "longitude_deg": -75.42814745053688,
      "height_km": 552.6132223913442,
      "semi_major_axis_km": 6927.613836170809,
      "eccentricity": 0.00012507,
      "inclination_deg": 97.6037,
      "raan_deg": 134.0911,
      "arg_perigee_deg": 94.8444,
      "mean_anomaly_deg": 265.2925,
      "mean_motion_rev_day": 15.05661188
    },
    {
      "epoch": "2026-03-30T14:13:50.613888Z",
      "apogee_km": 550.2045201380197,
      "perigee_km": 548.7778443901643,
      "latitude_deg": 9.02829671849942e-06,
      "longitude_deg": 93.17244772309746,
      "height_km": 552.679638993928,
      "semi_major_axis_km": 6927.628182264092,
      "eccentricity": 0.00010297,
      "inclination_deg": 97.6044,
      "raan_deg": 134.6158,
      "arg_perigee_deg": 100.0828,
      "mean_anomaly_deg": 260.0515,
      "mean_motion_rev_day": 15.05656511
    },
    {
      "epoch": "2026-03-30T20:36:38.852928Z",
      "apogee_km": 550.4358150698781,
      "perigee_km": 548.5855789229636,
      "latitude_deg": 4.306698042335636e-05,
      "longitude_deg": -2.5286725054432275,
      "height_km": 552.617387375284,
      "semi_major_axis_km": 6927.647696996421,
      "eccentricity": 0.00013354,
      "inclination_deg": 97.604,
      "raan_deg": 134.8777,
      "arg_perigee_deg": 92.7053,
      "mean_anomaly_deg": 267.4327,
      "mean_motion_rev_day": 15.05650149
    },
    {
      "epoch": "2026-03-31T14:09:21.029472Z",
      "apogee_km": 550.4033486660301,
      "perigee_km": 548.6174011727762,
      "latitude_deg": 1.0599033769707868e-06,
      "longitude_deg": 94.29644890257103,
      "height_km": 552.6422506493029,
      "semi_major_axis_km": 6927.647374919403,
      "eccentricity": 0.0001289,
      "inclination_deg": 97.6042,
      "raan_deg": 135.5991,
      "arg_perigee_deg": 94.4164,
      "mean_anomaly_deg": 265.721,
      "mean_motion_rev_day": 15.05650254
    }
  ]
}